SB KEPS @ AMSAT  $ORB21294.N
2Line Orbital Elements 21294.AMSAT

HR AMSAT ORBITAL ELEMENTS FOR AMATEUR SATELLITES IN NASA FORMAT
FROM WA5QGD FORT WORTH,TX October 21, 2021
BID: ORB21294.N

DECODE 2-LINE ELSETS WITH THE FOLLOWING KEY:
1 AAAAAU 00  0  0 BBBBB.BBBBBBBB  .CCCCCCCC  00000-0  00000-0 0  DDDZ
2 AAAAA EEE.EEEE FFF.FFFF GGGGGGG HHH.HHHH III.IIII JJ.JJJJJJJJKKKKKZ
KEY: A-CATALOGNUM B-EPOCHTIME C-DECAY D-ELSETNUM E-INCLINATION F-RAAN
G-ECCENTRICITY H-ARGPERIGEE I-MNANOM J-MNMOTION K-ORBITNUM Z-CHECKSUM

TO ALL RADIO AMATEURS BT

AO-07
1 07530U 74089B   21294.50694028 -.00000047  00000-0 -73071-5 0  9991
2 07530 101.8719 268.9469 0012317 138.6486 331.8203 12.53650904147522
UO-11
1 14781U 84021B   21294.87806198  .00000203  00000-0  30893-4 0  9993
2 14781  97.6008 288.5446 0009248  34.7427 325.4390 14.83345489 25675
LO-19
1 20442U 90005G   21294.44913913  .00000015  00000-0  22180-4 0  9991
2 20442  98.7575 251.1508 0012276 146.2776 213.9191 14.33001854658877
HUBBLE
1 20580U 90037B   21294.39035668  .00000865  00000-0  41204-4 0  9996
2 20580  28.4708 311.7144 0002586 345.1049 144.2511 15.09789935530040
MET-2/21
1 22782U 93055A   21294.48810623  .00000054  00000-0  35537-4 0  9999
2 22782  82.5524 203.8841 0021317 300.3094 233.7710 13.83841390420951
AO-27
1 22825U 93061C   21294.38301486  .00000011  00000-0  22138-4 0  9991
2 22825  98.9125 315.0590 0008988  34.4681 325.7082 14.30128102463986
IO-26
1 22826U 93061D   21294.32353030  .00000018  00000-0  24690-4 0  9990
2 22826  98.9068 314.8954 0009296  22.0713 338.0867 14.30468786464227
FO-29
1 24278U 96046B   21294.37501666 -.00000020  00000-0  15412-4 0  9990
2 24278  98.5523 345.5883 0350346 183.2023 176.6872 13.53106729243275
NOAA-15
1 25338U 98030A   21294.73082248  .00000053  00000-0  40738-4 0  9997
2 25338  98.6724 322.0684 0009292 273.2562  86.7555 14.26064522219249
GO-32
1 25397U 98043D   21294.55579504  .00000001  00000-0  20026-4 0  9993
2 25397  98.7838 239.8273 0002379  82.3728 277.7720 14.23718725209436
ISS
1 25544U 98067A   21294.89787730  .00004593  00000-0  92230-4 0  9998
2 25544  51.6428  76.1875 0004201 130.6198 339.8105 15.48761900308233
NO-44
1 26931U 01043C   21294.50545556  .00000001  00000-0  32214-4 0  9999
2 26931  67.0509 315.1205 0005642 273.6182  86.4274 14.30638059 47385
SO-50
1 27607U 02058C   21294.41008216  .00000133  00000-0  39534-4 0  9992
2 27607  64.5549 313.1585 0056383 344.9252  15.0168 14.75806739 13091
CO-55
1 27844U 03031E   21294.46793854  .00000088  00000-0  59215-4 0  9998
2 27844  98.6820 300.7777 0010949  75.8351 284.4043 14.22341698949897
CO-57
1 27848U 03031J   21294.28765448  .00000071  00000-0  51799-4 0  9991
2 27848  98.6873 301.1558 0010872  88.5634 271.6789 14.21914557949693
RS-22
1 27939U 03042A   21294.70034984  .00000273  00000-0  57464-4 0  9994
2 27939  98.1591  71.0477 0011807 238.6001 121.4052 14.67042529966037
NOAA-18
1 28654U 05018A   21294.73445199  .00000104  00000-0  80734-4 0  9990
2 28654  98.9809   0.0215 0013271 286.5018  73.4695 14.12648662846363
CO-58
1 28895U 05043F   21294.32533975  .00000271  00000-0  60737-4 0  9996
2 28895  98.0768  64.9431 0017035 169.9418 190.2129 14.63982841852424
Falconsat-3
1 30776U 07006E   21294.40086811  .00007456  00000-0  16918-3 0  9992
2 30776  35.4353   9.9577 0002209 324.5994  35.4587 15.42373581812556
CO-65
1 32785U 08021C   21294.41951670  .00000589  00000-0  68500-4 0  9992
2 32785  97.6265 268.4757 0011759 310.8537  49.1660 14.88848291730910
AAUSAT2
1 32788U 08021F   21294.46160059  .00001622  00000-0  14994-3 0  9999
2 32788  97.5151 283.9135 0010840 198.6882 161.3943 14.95852390732694
DO-64
1 32789U 08021G   21294.51503606  .00003268  00000-0  20658-3 0  9997
2 32789  97.3656 325.0046 0013004  72.3122 287.9526 15.09640479735843
CO-66
1 32791U 08021J   21294.42189139  .00000935  00000-0  98451-4 0  9996
2 32791  97.5849 274.2581 0011534 267.0371  92.9528 14.91588145731557
RS-30
1 32953U 08025A   21294.66680001  .00000021  00000-0  80971-4 0  9994
2 32953  82.5053 332.4437 0020560  64.3607 295.9593 12.43105064608666
PRISM
1 33493U 09002B   21294.45737861  .00001721  00000-0  15122-3 0  9997
2 33493  98.2037 263.1925 0013814 224.9283 135.0821 14.97970182693183
NOAA-19
1 33591U 09005A   21294.70992173  .00000077  00000-0  67090-4 0  9991
2 33591  99.1765 318.5047 0014614 135.7963 224.4378 14.12502306654748
SRMSAT
1 37841U 11058D   21294.34732907  .00000327  00000-0  34562-4 0  9997
2 37841  19.9718 260.1653 0011726 236.2182 279.0527 14.10707942517431
HRBE
1 37855U 11061F   21294.48567976  .00004007  00000-0  19504-3 0  9990
2 37855 101.7228 283.3794 0164907  55.6670 306.0024 15.08386541545171
RS-40
1 38735U 12041C   21294.44164609  .00000021  00000-0  79243-4 0  9998
2 38735  82.4781  54.5241 0017553 168.6053 191.5427 12.42583636418832
ZACUBE-1
1 39417U 13066B   21294.67759571  .00000502  00000-0  68291-4 0  9992
2 39417  97.6072 272.5592 0059957 106.8851 253.8949 14.81631819427761
Delfi-N3xt
1 39428U 13066N   21294.57814887  .00001049  00000-0  17219-3 0  9995
2 39428  97.7903 234.7230 0118729 321.7714  37.5116 14.68189580423470
GOMX-1
1 39430U 13066Q   21294.80237660  .00000456  00000-0  90253-4 0  9993
2 39430  97.8098 210.6020 0151723  77.0086 284.8011 14.59700713421479
LO-74
1 39440U 13066AA  21294.45241898  .00000394  00000-0  61128-4 0  9993
2 39440  97.6926 257.6844 0079393 185.7213 174.3099 14.76354547425016
AO-73
1 39444U 13066AE  21294.44859943  .00000624  00000-0  81584-4 0  9996
2 39444  97.5970 274.7256 0059044  97.4936 263.2991 14.82562496426108
SPROUT
1 39770U 14029E   21294.57985507  .00001889  00000-0  20783-3 0  9995
2 39770  97.9245  45.8332 0009333 146.6634 213.5139 14.88774158402101
DTUSAT-2
1 40030U 14033W   21294.55252137  .00000686  00000-0  78633-4 0  9997
2 40030  97.9187 221.7856 0013036 116.5613 243.6942 14.89126862398082
EO-80
1 40032U 14033Y   21294.51918992  .00000612  00000-0  70888-4 0  9996
2 40032  97.9194 221.7610 0013010 117.5318 242.7223 14.89088085398058
HODOYOSHI-1
1 40299U 14070B   21294.76591663  .00001803  00000-0  74839-4 0  9994
2 40299  97.2753   4.8725 0011004 261.8187 246.9439 15.25059747386665
FIREBIRD FU3
1 40377U 15003B   21294.43806075  .00005508  00000-0  19424-3 0  9992
2 40377  99.1135 102.2997 0115147 110.3086 251.0565 15.23700818371964
FIREBIRD FU4
1 40378U 15003C   21294.40999613  .00005986  00000-0  21028-3 0  9994
2 40378  99.1142 102.4282 0115154 110.1686 251.1976 15.23768134371966
GRIFEX
1 40379U 15003D   21294.46432047  .00005247  00000-0  20720-3 0  9992
2 40379  99.1123  90.6943 0126484 145.2826 215.6741 15.18971774371315
NO-84
1 40654U 15025D   21293.24495975  .00130927  16605-4  51522-3 0  1998
2 40654  54.9699 167.6752 0050311  44.5639 315.9322 15.84670536 26725
XW-2A
1 40903U 15049E   21294.79492890  .00006859  00000-0  13975-3 0  9997
2 40903  97.2212 348.8740 0010153 274.9194 192.1699 15.46511531342313
XW-2C
1 40906U 15049H   21294.75633424  .00001597  00000-0  83833-4 0  9991
2 40906  97.4905 295.5863 0016011 106.6831 356.8753 15.17077985336714
XW-2D
1 40907U 15049J   21294.72441237  .00002055  00000-0  10578-3 0  9993
2 40907  97.4894 295.3952 0015380 103.4379  11.8666 15.17446011336743
LILACSAT-2
1 40908U 15049K   21294.74243515  .00001089  00000-0  62313-4 0  9996
2 40908  97.5098 293.0700 0017052 119.8157 343.7942 15.14638468336346
XW-2E
1 40909U 15049L   21294.79045565  .00003059  00000-0  14443-3 0  9996
2 40909  97.4680 299.6297 0014764  89.6667 357.3179 15.20102850337121
XW-2F
1 40910U 15049M   21294.76940113  .00002883  00000-0  13825-3 0  9995
2 40910  97.4747 298.6980 0015808  90.0077 356.3427 15.19598436336903
XW-2B
1 40911U 15049N   21294.73416197  .00002074  00000-0  10701-3 0  9995
2 40911  97.4887 296.0678 0015333 104.5495  10.0645 15.17358570336630
DCBB
1 40912U 15049P   21294.75065029  .00003419  00000-0  15141-3 0  9999
2 40912  97.4446 303.0640 0015683  63.5260  22.5535 15.22215967337402
TW-1A
1 40928U 15051D   21294.76311654  .00010676  00000-0  20740-3 0  9992
2 40928  97.0688 316.7138 0008770 177.5908 299.1423 15.47757731341219
IO-86
1 40931U 15052B   21291.93850132  .00000895  00000-0  35358-4 0  9996
2 40931   5.9963  91.7123 0013820 353.4989   6.5547 14.76697847327580
ATHENOXAT-1
1 41168U 15077C   21294.68571759  .00004882  00000-0  20813-3 0  9995
2 41168  14.9921  52.5124 0010992 134.3759  79.0187 15.16393107323961
ChubuSat-2
1 41338U 16012B   21294.18793067  .00000653  00000-0  43601-4 0  9990
2 41338  31.0023 106.3096 0013789 299.7083  60.2180 15.00648799311507
ChubuSat-3
1 41339U 16012C   21294.73103676  .00000638  00000-0  42319-4 0  9991
2 41339  31.0108  99.9564 0013682 314.8009  45.1535 15.00787617311585
Horyu-4
1 41340U 16012D   21294.48798915  .00001088  00000-0  74265-4 0  9996
2 41340  31.0046  83.4740 0013844 344.3915  15.6293 15.02089521311759
e-st@r-II
1 41459U 16025D   21294.84969050  .00003285  00000-0  15998-3 0  9999
2 41459  98.1583  78.7881 0157535 356.9291   3.0953 15.08905956301472
AAUSAT4
1 41460U 16025E   21294.67351561  .00005006  00000-0  22877-3 0  9991
2 41460  98.1579  83.1446 0143158 339.1155  20.4200 15.12351734301780
LO-87
1 41557U 16033B   21294.77315814  .00004592  00000-0  15937-3 0  9997
2 41557  97.3934  28.0558 0013618 141.6664 317.4206 15.30206064300849
NuSat2
1 41558U 16033C   21294.79697591  .00004888  00000-0  15879-3 0  9998
2 41558  97.4065  32.5029 0012710 133.6463 325.7901 15.32325966301063
Lapan A3
1 41603U 16040E   21294.78794799  .00000439  00000-0  23341-4 0  9996
2 41603  97.2422 336.8281 0011662 281.9638 189.4426 15.20134719295773
Pratham
1 41783U 16059A   21294.36376538  .00000133  00000-0  34641-4 0  9992
2 41783  97.9499 340.0629 0032953 206.7304 153.2201 14.63177865270663
TY-1
1 41844U 16066D   21294.75640163  .00002511  00000-0  99452-4 0  9992
2 41844  97.3983 303.6961 0015975  55.8812  58.5624 15.26244917275168
CAS-2T
1 41847U 16066G   21294.46688340  .00000288  00000-0  53804-4 0  9992
2 41847  98.5870 354.0328 0364674 204.0080 154.3729 14.38257204259993
